STARLINK-30494          
1 57970U 23151G   26068.36049035 -.00001272  00000+0 -35691-4 0  9993
2 57970  43.0027 192.4566 0001155 241.5536 118.5200 15.28417441137406
STARLINK-33604          
1 63070U 25035U   26068.28748437  .00025334  00000+0  92728-3 0  9993
2 63070  42.9968 149.7484 0001054 219.7112 140.3663 15.27569526 59652
